*******************************************************************************
JPL/HORIZONS              2241 Alcathous (1979 WM)         2023-Sep-04 11:16:48
Rec #:    2241 (+COV) Soln.date: 2023-Aug-22_18:36:59   # obs: 4069 (1950-2023)
 
IAU76/J2000 helio. ecliptic osc. elements (au, days, deg., period=Julian yrs):
 
  EPOCH=  2457306.5 ! 2015-Oct-11.00 (TDB)         Residual RMS= .2653
   EC= .06684664595303638  QR= 4.841018435162172   TP= 2458742.6995274629
   OM= 267.9832045952048   W=  290.8544098863869   IN= 16.61806550437565
   A= 5.187805856526487    MA= 240.2037342017382   ADIST= 5.534593277890802
   PER= 11.81636           N= .083411994           ANGMOM= .039093163
   DAN= 5.04458            DDN= 5.29052            L= 199.6638147
   B= -15.5009714          MOID= 3.8778801         TP= 2019-Sep-16.1995274629
 
Asteroid physical parameters (km, seconds, rotational period in hours):
   GM= n.a.                RAD= 56.841             ROTPER= 7.689
   H= 8.61                 G= .150                 B-V= .728
                           ALBEDO= .048            STYP= D

ASTEROID comments: 
1: soln ref.= JPL#86, OCC=0
2: source=ORB
*******************************************************************************


*******************************************************************************
Ephemeris / API_USER Mon Sep  4 11:16:48 2023 Pasadena, USA      / Horizons
*******************************************************************************
Target body name: 2241 Alcathous (1979 WM)        {source: JPL#86}
Center body name: Solar System Barycenter (0)     {source: DE441}
Center-site name: BODY CENTER
*******************************************************************************
Start time      : A.D. 2023-Aug-12 00:00:00.0000 TDB
Stop  time      : A.D. 2023-Aug-13 00:00:00.0000 TDB
Step-size       : 2880 minutes
*******************************************************************************
Center geodetic : 0.0, 0.0, 0.0                   {E-lon(deg),Lat(deg),Alt(km)}
Center cylindric: 0.0, 0.0, 0.0                   {E-lon(deg),Dxy(km),Dz(km)}
Center radii    : (undefined)
Small perturbers: Yes                             {source: SB441-N16}
Output units    : KM-S
Calendar mode   : Mixed Julian/Gregorian
Output type     : GEOMETRIC cartesian states
Output format   : 2 (position and velocity)
Reference frame : Ecliptic of J2000.0
*******************************************************************************
Initial IAU76/J2000 heliocentric ecliptic osculating elements (au, days, deg.):
  EPOCH=  2457306.5 ! 2015-Oct-11.00 (TDB)         Residual RMS= .2653         
   EC= .06684664595303638  QR= 4.841018435162172   TP= 2458742.6995274629      
   OM= 267.9832045952048   W=  290.8544098863869   IN= 16.61806550437565       
  Equivalent ICRF heliocentric cartesian coordinates (au, au/d):
   X= 1.542108600864098E+00  Y= 4.549575355145175E+00  Z= 2.415034875623304E+00
  VX=-6.765288508754312E-03 VY= 2.429470493036058E-03 VZ=-1.166282956693588E-03
Asteroid physical parameters (km, seconds, rotational period in hours):        
   GM= n.a.                RAD= 56.841             ROTPER= 7.689               
   H= 8.61                 G= .150                 B-V= .728                   
                           ALBEDO= .048            STYP= D                     
*******************************************************************************
JDTDB
   X     Y     Z
   VX    VY    VZ
*******************************************************************************
$$SOE
2460168.500000000 = A.D. 2023-Aug-12 00:00:00.0000 TDB 
 X = 6.264853959192978E+08 Y =-4.586149904062434E+08 Z = 1.921759534967261E+08
 VX= 7.525651777298554E+00 VY= 9.935828053266119E+00 VZ= 2.140347668790744E+00
$$EOE
*******************************************************************************
 
TIME

  Barycentric Dynamical Time ("TDB" or T_eph) output was requested. This
continuous coordinate time is equivalent to the relativistic proper time
of a clock at rest in a reference frame co-moving with the solar system
barycenter but outside the system's gravity well. It is the independent
variable in the solar system relativistic equations of motion.

  TDB runs at a uniform rate of one SI second per second and is independent
of irregularities in Earth's rotation.
 
CALENDAR SYSTEM

  Mixed calendar mode was active such that calendar dates after AD 1582-Oct-15
(if any) are in the modern Gregorian system. Dates prior to 1582-Oct-5 (if any)
are in the Julian calendar system, which is automatically extended for dates
prior to its adoption on 45-Jan-1 BC.  The Julian calendar is useful for
matching historical dates. The Gregorian calendar more accurately corresponds
to the Earth's orbital motion and seasons. A "Gregorian-only" calendar mode is
available if such physical events are the primary interest.

REFERENCE FRAME AND COORDINATES

  Ecliptic at the standard reference epoch

    Reference epoch: J2000.0
    X-Y plane: adopted Earth orbital plane at the reference epoch
               Note: IAU76 obliquity of 84381.448 arcseconds wrt ICRF X-Y plane
    X-axis   : ICRF
    Z-axis   : perpendicular to the X-Y plane in the directional (+ or -) sense
               of Earth's north pole at the reference epoch.

  Symbol meaning:

    JDTDB    Julian Day Number, Barycentric Dynamical Time
      X      X-component of position vector (km)
      Y      Y-component of position vector (km)
      Z      Z-component of position vector (km)
      VX     X-component of velocity vector (km/sec)                           
      VY     Y-component of velocity vector (km/sec)                           
      VZ     Z-component of velocity vector (km/sec)                           

ABERRATIONS AND CORRECTIONS

 Geometric state vectors have NO corrections or aberrations applied.

Computations by ...

    Solar System Dynamics Group, Horizons On-Line Ephemeris System
    4800 Oak Grove Drive, Jet Propulsion Laboratory
    Pasadena, CA  91109   USA

    General site: https://ssd.jpl.nasa.gov/
    Mailing list: https://ssd.jpl.nasa.gov/email_list.html
    System news : https://ssd.jpl.nasa.gov/horizons/news.html
    User Guide  : https://ssd.jpl.nasa.gov/horizons/manual.html
    Connect     : browser        https://ssd.jpl.nasa.gov/horizons/app.html#/x
                  API            https://ssd-api.jpl.nasa.gov/doc/horizons.html
                  command-line   telnet ssd.jpl.nasa.gov 6775
                  e-mail/batch   https://ssd.jpl.nasa.gov/ftp/ssd/hrzn_batch.txt
                  scripts        https://ssd.jpl.nasa.gov/ftp/ssd/SCRIPTS
    Author      : Jon.D.Giorgini@jpl.nasa.gov
*******************************************************************************
